STARLINK-31611          
1 59325U 24057F   26067.63887757 -.00000194  00000+0  24895-5 0  9991
2 59325  42.9971 193.4134 0001426 288.4796  71.5901 15.27577803109671
TEVEL2-9                
1 63237U 25052AD  26068.70229538  .00018694  00000+0  67240-3 0  9992
2 63237  97.4057 324.3929 0007990 124.2475 235.9522 15.28633834 54816
